[{"OBJECT_NAME":"GAOFEN-9 05","OBJECT_ID":"2020-058A","EPOCH":"2026-03-10T00:01:50.876256","MEAN_MOTION":15.30293976,"ECCENTRICITY":0.0010522,"INCLINATION":97.2228,"RA_OF_ASC_NODE":111.963,"ARG_OF_PERICENTER":91.0204,"MEAN_ANOMALY":269.2242,"EPHEMERIS_TYPE":0,"CLASSIFICATION_TYPE":"U","NORAD_CAT_ID":46232,"ELEMENT_SET_NO":999,"REV_AT_EPOCH":30843,"BSTAR":0.00025120304,"MEAN_MOTION_DOT":7.299e-5,"MEAN_MOTION_DDOT":0},{"OBJECT_NAME":"STARLINK-2330","OBJECT_ID":"2021-021Q","EPOCH":"2026-03-10T00:00:02.999808","MEAN_MOTION":15.18160337,"ECCENTRICITY":0.00015757,"INCLINATION":53.1049,"RA_OF_ASC_NODE":214.8621,"ARG_OF_PERICENTER":60.7022,"MEAN_ANOMALY":1.7826,"EPHEMERIS_TYPE":0,"CLASSIFICATION_TYPE":"U","NORAD_CAT_ID":47874,"ELEMENT_SET_NO":999,"REV_AT_EPOCH":579,"BSTAR":0.042995602,"MEAN_MOTION_DOT":0.0096506,"MEAN_MOTION_DDOT":0}]
